#dP2025  1 20 18  0  0.00000000      96 __u+U IGS20 EXT  IAC
## 2350 151200.00000000   900.00000000 60695 0.7500000000000
+   53   G01G02G03G04G05G06G07G08G09G10G11G12G13G14G15G16G17
+        G18G19G20G21G22G23G24G25G26G27G28G29G30G31G32R01R02
+        R03R04R05R07R08R09R11R12R14R15R16R17R18R19R20R21R22
+        R24R26  0  0  0  0  0  0  0  0  0  0  0  0  0  0  0
+          0  0  0  0  0  0  0  0  0  0  0  0  0  0  0  0  0
++         7  7  6  9  7  7  7  8  9  5  6  7  7  6  7  7  7
++         5  7  8  7  7  7  7  6  7  6  5  6  6  6  7 10  8
++         7  7  9  7  8  7  7  8  8  9  8  9  8  8  8  8  9
++        11  8  0  0  0  0  0  0  0  0  0  0  0  0  0  0  0
++         0  0  0  0  0  0  0  0  0  0  0  0  0  0  0  0  0
%c M  cc GPS ccc cccc cccc cccc cccc ccccc ccccc ccccc ccccc
%c cc cc ccc ccc cccc cccc cccc cccc ccccc ccccc ccccc ccccc
%f  0.0000000  0.000000000  0.00000000000  0.000000000000000
%f  0.0000000  0.000000000  0.00000000000  0.000000000000000
%i    0    0    0    0      0      0      0      0         0
%i    0    0    0    0      0      0      0      0         0
/* IAC                                ULTRA-RAPID PREDICTION
/* S/V CLOCKS ARE ALIGNED TO GNSS TIME                      
/* G:C1WC2W R:C1PC2P E:C1XC5X C:C2IC6I J:C1CC2S             
/* PCV:IGS20_2317 OL/AL:FES2004  NONE     YN ORB:CoN CLK:CoN
*  2025 01 21  4  0  0.00000000
PG01   4171.584148  14812.913914 -21643.244644     64.844753
PG02   2668.790101  14664.994445 -21507.547575   -262.796409
PG03  10857.142642  22520.397120  -9298.430127    649.970047
PG04   1854.892889  22177.219056  14400.572506    515.152606
PG05   1149.376155 -17976.223612  19323.461941   -199.634462
PG06  25831.577610  -5962.124949   2601.780078   -133.049601
PG07  19472.134070   8581.508765  16708.971636    -13.387896
PG08  -4931.849072  25535.996046  -4125.373305    465.076253
PG09   9429.374353  15123.952052  19581.122556    536.835463
PG10 -19189.527826  -4672.356702 -17684.730860   -285.569813
PG11  19467.498217 -12031.456370  13469.661789   -751.047964
PG12  -7140.378261 -23088.380326 -11361.059400   -565.664804
PG13  13645.119757 -22496.608947   2243.909790    694.125093
PG14  20491.500609   7901.633061 -15058.206283    583.892804
PG15   1130.405263 -26081.088669  -4986.254735    254.093135
PG16  -8082.784002  13762.837838  20792.345771    -72.717704
PG17  16055.619182  -1030.444012 -20765.395820    464.543178
PG18 -21147.118350  -6732.688200  14791.937626   -657.057770
PG19  17778.977316 -10631.150267 -16502.322563    588.675161
PG20  11921.452546  -9944.110271  21629.648593    366.911468
PG21  -4399.641407  15894.577405 -20179.968220    101.439238
PG22  17299.107295    601.503018 -19674.438381    -93.346808
PG23 -20205.510408 -16193.078356  -6392.491123    407.966846
PG24   -710.871559 -16271.631788 -21409.505594   -461.667069
PG25 -17367.098024 -20285.885886   -599.296762    496.412305
PG26 -16137.881512   5355.745322  20296.920701    -56.810289
PG27 -12481.465820  22166.142457   6481.924758    -32.762062
PG28 -25924.317768   5783.928664    325.572112   -540.591017
PG29  -7982.997384 -15644.763301  19840.500708   -545.232628
PG30  25879.128190    241.743106   6730.931341   -234.487777
PG31 -23070.582105  10016.121781   8830.793690   -217.405865
PG32 -16531.907896   6501.076286 -19448.468967   -537.672335
PR01  -4418.433032  22496.738599 -11188.670098    111.962435
PR02   2711.972523  24621.656919   5983.593199    -38.262153
PR03   9465.296250  12637.177393  20063.224736    115.308450
PR04  10431.393204  -5534.152430  22644.933532    273.458682
PR05   6198.668637 -20939.409708  13219.586828    144.092883
PR07  -9462.003485 -12492.249740 -20100.263644     99.266696
PR08 -10422.733841   5898.622513 -22452.346357     -6.354514
PR09 -11305.395181 -15322.393749 -16913.771768    233.318482
PR11 -21147.715582  -4281.366929  13596.338666     -2.353609
PR12  -6737.557371   8871.039781  22963.663584     49.858455
PR14  21987.544132  12859.260114   1549.793915     27.621549
PR15  20395.892577   3121.618519 -14991.021934     71.987889
PR16   6803.827142  -8655.098673 -23009.650358     32.623527
PR17  15439.393356   1761.287035 -20203.765877    159.327478
PR18  22704.639950  -8831.152665  -7631.707487    182.972729
PR19  20062.015770 -14073.105094   7085.494105   -306.272591
PR20   2386.282477 -12434.046899  22165.347649   -124.835509
PR21 -14449.529501  -2702.090318  20856.743654   -169.940739
PR22 -23024.951283   8906.734627   6418.960879    -56.967318
PR24  -1030.270510  12716.836256 -22068.979576    -89.048957
PR26 -10597.636924   3814.725151 -22864.720281   -131.588549
*  2025 01 21  4 15  0.00000000
PG01   1711.385786  15153.569048 -21740.821454     64.870843
PG02    225.165432  15368.023012 -21150.382098   -262.788111
PG03   9961.347068  21736.816766 -11849.833318    649.976399
PG04   1153.548120  23538.580743  12116.370970    515.157816
PG05   2849.066592 -16406.906425  20503.138058   -199.635499
PG06  25983.991492  -5825.591112   -298.061630   -133.073366
PG07  17642.375756   9114.471347  18388.805430    -13.387733
PG08  -5320.185876  25738.994403  -1287.527711    465.083074
PG09   8691.432298  17179.071548  18177.962371    536.848675
PG10 -20408.873353  -6185.238698 -15808.386809   -285.584011
PG11  20882.759819 -12065.779107  11098.877089   -751.046798
PG12  -6122.499219 -22119.781273 -13697.838368   -565.666765
PG13  13661.384073 -21989.404864   5097.821631    694.126152
PG14  21380.522982   9253.738623 -12928.142917    583.899173
PG15   1502.854628 -26386.492573  -2208.057101    254.097109
PG16  -9647.999803  11820.340758  21344.100177    -72.709287
PG17  15197.714197   1309.641757 -21356.463584    464.527244
PG18 -19416.695263  -7213.396420  16786.542381   -657.056365
PG19  17135.468659  -8752.300691 -18249.027828    588.679221
PG20  13820.126630  -8425.940227  21125.487924    366.911212
PG21  -6684.610684  16451.363005 -18995.042642    101.439771
PG22  18545.980330   2490.271179 -18343.847442    -93.348462
PG23 -20475.731903 -16724.632100  -3582.403916    407.973539
PG24   1533.967476 -16917.249002 -20809.425521   -461.663252
PG25 -17043.590771 -20331.860092  -3403.396463    496.411756
PG26 -17757.795573   3711.038967  19332.156531    -56.824372
PG27 -12470.808729  21180.810236   9163.185420    -32.761540
PG28 -25864.499089   5508.232705  -2527.568819   -540.599442
PG29  -7044.360199 -17640.754322  18466.988351   -545.229575
PG30  25064.039954    708.276306   9316.804742   -234.480129
PG31 -23980.765878   9952.188598   6184.470444   -217.405067
PG32 -15941.530847   4235.424346 -20541.609049   -537.665852
PR01  -4400.271875  20943.766609 -13883.810186    111.963492
PR02   2897.891518  25153.966537   2812.064697    -38.261790
PR03   9655.318748  14988.660427  18263.671147    115.309105
PR04  10487.080965  -2716.489943  23126.525202    273.460178
PR05   6099.996845 -19151.298785  15737.248177    144.093519
PR07  -9651.625519 -14866.181103 -18324.410844     99.267318
PR08 -10509.825044   3079.447064 -22971.222426     -6.354443
PR09  -9330.440469 -14322.493321 -18885.504963    233.320498
PR11 -22548.260957  -4858.663408  10877.850225     -2.356233
PR12  -9236.905473   7601.539085  22546.689095     49.858893
PR14  21695.140895  12582.426804   4715.134128     27.621606
PR15  21946.866646   3807.664603 -12424.867129     71.987607
PR16   9316.854582  -7391.767191 -22568.456020     32.623833
PR17  13207.929267   3067.457766 -21584.713072    159.330217
PR18  21643.184580  -8405.478933 -10604.438028    182.974485
PR19  20550.836298 -14591.061581   3934.235650   -306.273780
PR20   4664.472117 -13811.034640  20957.743259   -124.836026
PR21 -12151.055570  -4023.393998  22072.322054   -169.943587
PR22 -22113.931617   8535.228444   9433.924910    -56.968945
PR24  -3250.801728  14179.274833 -20935.464074    -89.050343
PR26 -10715.564641    973.678679 -23104.213517   -131.588147
EOF
